ALOS-4 (DAICHI-4)       
1 60182U 24123A   24259.89283111  .00002928  00000+0  39866-3 0  9999
2 60182  97.9216 355.2474 0001510  95.6092 264.5292 14.79480430 11351
